D-STAR ONE (LIGHTSAT)   
1 44393U 19038H   21333.16756125  .00003077  00000+0  17063-3 0  9995
2 44393  97.6107 297.2784 0022803 103.4517 256.9258 15.14330835132703
AMGU-1 (AMURSAT)        
1 44394U 19038J   21333.24884839  .00002066  00000+0  11576-3 0  9999
2 44394  97.6083 297.2993 0022631 103.2608 257.1151 15.14338189132713
DOT-1                   
1 44399U 19038P   21332.85539721  .00001675  00000+0  97528-4 0  9994
2 44399  97.6136 296.1774 0025672 108.7074 251.6947 15.13172872132599
SOKRAT                  
1 44404U 19038U   21333.15451986  .00002443  00000+0  13674-3 0  9994
2 44404  97.6096 296.9309 0023024 105.1282 255.2498 15.14187356132689
LUCKY-7                 
1 44406U 19038W   21333.17553169  .00002082  00000+0  11923-3 0  9998
2 44406  97.6128 296.7680 0025570 100.5685 259.8428 15.13490635132657
D-STAR ONE (EXOCONNECT) 
1 44410U 19038AA  21333.34694133  .00005094  00000+0  27222-3 0  9994
2 44410  97.6060 297.5645 0022620 101.3859 258.9915 15.15331221132751
NARSSCUBE-2             
1 44415U 19022E   21332.74381557  .00001863  00000+0  71499-4 0  9994
2 44415  51.6428   6.8852 0011718  55.0130 305.1950 15.31864076129328
KRAKSAT                 
1 44427U 98067QM  21333.54866676  .00155249  00000+0  60952-3 0  9991
2 44427  51.6358 172.9769 0005161 190.6405 264.1700 15.85934861137472
NARSSCUBE-1             
1 44792U 98067QX  21332.84319324  .00273214  40264-4  69336-3 0  9990
2 44792  51.6284 185.5619 0007457 204.7777 155.2873 15.94936831115474
DUCHIFAT-3              
1 44854U 19089C   21333.05355887  .00000910  00000+0  78476-4 0  9990
2 44854  36.9645 207.0268 0007987  20.8516 339.2551 14.99820626107821
OPS-SAT                 
1 44878U 19092F   21332.78598003  .00002164  00000+0  11218-3 0  9991
2 44878  97.4754 153.9983 0012708 324.3564  35.6819 15.17185828107749
FLORIPASAT-1            
1 44885U 19093G   21333.45906060  .00000548  00000+0  74841-4 0  9997
2 44885  97.9149  51.2369 0015827 121.8531 238.4232 14.82483146105214
HUSKYSAT-1 (HO-107)     
1 45119U 19071J   21332.96650693  .00007141  00000+0  20071-3 0  9998
2 45119  51.6415 318.3079 0010675 159.5445 200.5968 15.37573996102465
G-SAT                   
1 45597U 98067RK  21333.39005358  .00046671  00000+0  45496-3 0  9999
2 45597  51.6367 218.0158 0004079 185.7063 174.3887 15.65738568 90376
QUETZAL-1               
1 45598U 98067RL  21333.07821047  .00060725  00000+0  45943-3 0  9999
2 45598  51.6356 214.4043 0003869 166.2293 193.8812 15.71808493 90324
BY70-2                  
1 45857U 20042B   21333.57449813  .00001937  00000+0  27785-3 0  9991
2 45857  97.9727  47.5674 0011411  49.1110 311.1095 14.77620106 75926
SALSAT                  
1 46495U 20068K   21332.90791567  .00001606  00000+0  12148-3 0  9990
2 46495  97.7052 269.5522 0015872 234.4344 125.5403 15.03687503 64040
NETSAT-4                
1 46504U 20068U   21332.75966912  .00001110  00000+0  88378-4 0  9991
2 46504  97.7052 268.3683 0010548 281.8263  78.1781 15.02394132 63905
NETSAT-3                
1 46505U 20068V   21332.77027954  .00001624  00000+0  12730-3 0  9996
2 46505  97.7011 268.3240 0010993 292.1864  67.8188 15.02357034 63913
NETSAT-1                
1 46506U 20068W   21332.24779451  .00001370  00000+0  10829-3 0  9990
2 46506  97.7011 267.7642 0010224 308.2067  51.8234 15.02297353 63837
NETSAT-2                
1 46507U 20068X   21332.58709630  .00000657  00000+0  54393-4 0  9992
2 46507  97.7011 268.0967 0009836 319.1056  40.9468 15.02266770 63835
BY70-3                  
1 46839U 20079N   21333.57981488  .00005232  00000+0  15453-3 0  9992
2 46839  97.2249  44.1720 0006465 348.5888 149.0688 15.35364155 59523
SPOC                    
1 46921U 98067RR  21332.37612526  .00024648  00000+0  30942-3 0  9999
2 46921  51.6390 236.0442 0001141  77.0373 283.0747 15.59564256 60390
BOBCAT-1                
1 46922U 98067RS  21333.43046629  .00049330  00000+0  50321-3 0  9991
2 46922  51.6405 225.8698 0002318 115.8505 244.2729 15.64577777 60579
NEUTRON-1               
1 46923U 98067RT  21333.11025008  .00021037  00000+0  26617-3 0  9990
2 46923  51.6399 232.6969 0001631  78.8919 281.2257 15.59460557 60526
1998-067RU              
1 46924U 98067RU  21333.06575369  .00189492  00000+0  82725-3 0  9997
2 46924  51.6305 215.0111 0006307 164.4914 195.6283 15.83611470 60717
DESCENT                 
1 46927U 98067RX  21333.43355817  .00028507  00000+0  35655-3 0  9994
2 46927  51.6401 231.1020 0002316  80.3304 279.7951 15.59575406 60481
UVSQ-SAT                
1 47438U 21006AB  21332.88756293  .00001780  00000+0  10246-3 0  9995
2 47438  97.4676  31.0297 0011152 247.3033 112.7020 15.13674646 46928
SOMP2B                  
1 47445U 21006AJ  21332.92056384  .00001551  00000+0  90216-4 0  9994
2 47445  97.4649  30.8726 0010724 251.4420 108.5646 15.13483491 46923
WARP-01                 
1 47924U 98067SA  21333.45359320  .00042386  00000+0  54052-3 0  9990
2 47924  51.6387 237.2070 0003339  48.8942 311.2339 15.58860278 40468
RSP-01                  
1 47925U 98067SB  21333.14661119  .00024346  00000+0  33511-3 0  9992
2 47925  51.6405 239.6758 0000793 137.9305 222.1748 15.57113377 40388
TAUSAT-1                
1 47926U 98067SC  21333.45118741  .00043590  00000+0  54718-3 0  9999
2 47926  51.6393 236.4455 0000930 173.1042 186.9963 15.59269025 40444
TSURU                   
1 47927U 98067SD  21333.44780702  .00026502  00000+0  37357-3 0  9995
2 47927  51.6407 238.6866 0000566 154.2855 205.8165 15.56419217 40428
STARS-EC                
1 47928U 98067SE  21333.13338457  .00037621  00000+0  47375-3 0  9993
2 47928  51.6396 238.8247 0003881  50.0669 310.0665 15.59248034 40378
MAYA-2                  
1 47929U 98067SF  21333.18663835  .00025385  00000+0  35826-3 0  9992
2 47929  51.6396 239.9400 0000636 167.8503 192.2505 15.56411983 40343
HIROGARI (OPUSAT-II)    
1 47930U 98067SG  21332.86806685  .00036545  00000+0  44856-3 0  9993
2 47930  51.6398 239.3154 0001916 144.3202 215.7920 15.59942904 40364
GUARANISAT-1            
1 47931U 98067SH  21333.44029779  .00026762  00000+0  37649-3 0  9992
2 47931  51.6401 238.6389 0000672 172.0246 188.0756 15.56467188 40425
DIY-1 (ARDUIQUBE)       
1 47963U 21022AH  21332.48539176  .00005323  00000+0  34423-3 0  9991
2 47963  97.5446 231.8854 0020546 101.7020 258.6515 15.08442384 36612
